*******************************************************************************
 Revised: Jan 15, 2010                 Mars                             499 / 4
 
 GEOPHYSICAL DATA (updated 2009-May-26):
  Mean radius (km)      = 3389.9(2+-4)    Density (g cm^-3)     =  3.933(5+-4)
  Mass (10^23 kg )      =    6.4185       Flattening, f         =  1/154.409
  Volume (x10^10 km^3)  =   16.318        Semi-major axis       =  3397+-4
  Sidereal rot. period  =   24.622962 hr  Rot. Rate (x10^5 s)   =  7.088218
  Mean solar day        =    1.0274907 d  Polar gravity ms^-2   =  3.758
  Mom. of Inertia       =    0.366        Equ. gravity  ms^-2   =  3.71
  Core radius (km)      =  ~1700          Potential Love # k2   =  0.153 +-.017
 
  Grav spectral fact u  =   14 (x10^5)    Topo. spectral fact t = 96 (x10^5)
  Fig. offset (Rcf-Rcm) = 2.50+-0.07 km   Offset (lat./long.)   = 62d / 88d
  GM (km^3 s^-2)        = 42828.3         Equatorial Radius, Re = 3394.0 km 
  GM 1-sigma (km^3 s^-2)= +- 0.1          Mass ratio (Sun/Mars) = 3098708+-9
  
  Atmos. pressure (bar) =    0.0056       Max. angular diam.    =  17.9"
  Mean Temperature (K)  =  210            Visual mag. V(1,0)    =  -1.52
  Geometric albedo      =    0.150        Obliquity to orbit    =  25.19 deg
  Mean sidereal orb per =    1.88081578 y Orbit vel.  km/s      =  24.1309
  Mean sidereal orb per =  686.98 d       Escape vel. km/s      =   5.027
  Hill's sphere rad. Rp =  319.8          Mag. mom (gauss Rp^3) = < 1x10^-4 
*******************************************************************************
 
 
*******************************************************************************
Ephemeris / WWW_USER Thu Sep 23 12:23:29 2010  Pasadena, USA     / Horizons    
*******************************************************************************
Target body name: Mars (499)                      {source: MAR085}
Center body name: Solar System Barycenter (0)     {source: DE405}
Center-site name: BODY CENTER
*******************************************************************************
Start time      : A.D. 2005-Jan-01 00:00:00.0000 CT 
Stop  time      : A.D. 2015-Jan-01 00:00:00.0000 CT 
Step-size       : 360 minutes
*******************************************************************************
Center geodetic : 0.00000000,0.00000000,0.0000000 {E-lon(deg),Lat(deg),Alt(km)}
Center cylindric: 0.00000000,0.00000000,0.0000000 {E-lon(deg),Dxy(km),Dz(km)}
Center radii    : (undefined)                                                  
Output units    : KM-S                                                         
Output format   : 02
Reference frame : ICRF/J2000.0                                                 
Output type     : GEOMETRIC cartesian states
Coordinate systm: Ecliptic and Mean Equinox of Reference Epoch                 
*******************************************************************************
JDCT ,   , X, Y, Z, VX, VY, VZ,
*******************************************************************************
$$SOE
2455532.750000000, A.D. 2010-Dec-02 06:00:00.0000,  2.270970330289611E+07, -2.143925291433259E+08, -5.065887205787495E+06,  2.500133294014429E+01,  4.691059656182986E+00, -5.153712887437354E-01,
2455533.000000000, A.D. 2010-Dec-02 12:00:00.0000,  2.324965972827532E+07, -2.142905418135169E+08, -5.077003609390244E+06,  2.499460602225669E+01,  4.752212688910900E+00, -5.139246589244599E-01,
2455533.250000000, A.D. 2010-Dec-02 18:00:00.0000,  2.378946914731426E+07, -2.141872335072701E+08, -5.088088722857997E+06,  2.498772119212870E+01,  4.813372303670161E+00, -5.124740365246296E-01,
2455533.500000000, A.D. 2010-Dec-03 00:00:00.0000,  2.432912814630611E+07, -2.140826040873798E+08, -5.099142459390700E+06,  2.498067828710634E+01,  4.874538002848758E+00, -5.110194180739758E-01,
2455533.750000000, A.D. 2010-Dec-03 06:00:00.0000,  2.486863330883138E+07, -2.139766534258840E+08, -5.110164732394710E+06,  2.497347710982001E+01,  4.935709351927621E+00, -5.095607791346419E-01,
2455534.000000000, A.D. 2010-Dec-03 12:00:00.0000,  2.540798121579517E+07, -2.138693814046337E+08, -5.121155455526814E+06,  2.496611751947060E+01,  4.996885976285442E+00, -5.080981179720512E-01,
2455534.250000000, A.D. 2010-Dec-03 18:00:00.0000,  2.594716844512680E+07, -2.137607879153706E+08, -5.132114542543799E+06,  2.495859945259525E+01,  5.058067460623301E+00, -5.066314715527436E-01,
2455534.500000000, A.D. 2010-Dec-04 00:00:00.0000,  2.648619157167310E+07, -2.136508728591447E+08, -5.143041907198101E+06,  2.495092280981984E+01,  5.119253305567158E+00, -5.051608642028298E-01,
2455534.750000000, A.D. 2010-Dec-04 06:00:00.0000,  2.702504716753604E+07, -2.135396361460599E+08, -5.153937463365674E+06,  2.494308741218094E+01,  5.180443028781331E+00, -5.036862805747420E-01,
2455535.000000000, A.D. 2010-Dec-04 12:00:00.0000,  2.756373180228915E+07, -2.134270776957352E+08, -5.164801125165582E+06,  2.493509307792503E+01,  5.241636221093367E+00, -5.022076989186961E-01,
2455535.250000000, A.D. 2010-Dec-04 18:00:00.0000,  2.810224204282692E+07, -2.133131974378156E+08, -5.175632806910589E+06,  2.492693970496797E+01,  5.302832501613904E+00, -5.007251331790128E-01,
2455535.500000000, A.D. 2010-Dec-05 00:00:00.0000,  2.864057445307511E+07, -2.131979953118071E+08, -5.186432422946617E+06,  2.491862723801070E+01,  5.364031410949724E+00, -4.992386238156252E-01,
2455535.750000000, A.D. 2010-Dec-05 06:00:00.0000,  2.917872559413957E+07, -2.130814712664729E+08, -5.197199887668535E+06,  2.491015555243168E+01,  5.425232438193522E+00, -4.977481806613395E-01,
2455536.000000000, A.D. 2010-Dec-05 12:00:00.0000,  2.971669202467722E+07, -2.129636252598208E+08, -5.207935115678713E+06,  2.490152446434618E+01,  5.486435124658110E+00, -4.962537813284518E-01,
2455536.250000000, A.D. 2010-Dec-05 18:00:00.0000,  3.025447030093230E+07, -2.128444572596480E+08, -5.218638021825418E+06,  2.489273381965759E+01,  5.547639080216340E+00, -4.947554128247005E-01,
2455536.500000000, A.D. 2010-Dec-06 00:00:00.0000,  3.079205697643455E+07, -2.127239672439049E+08, -5.229308521071926E+06,  2.488378355095797E+01,  5.608843898822705E+00, -4.932531039609216E-01,
2455536.750000000, A.D. 2010-Dec-06 06:00:00.0000,  3.132944860184229E+07, -2.126021552003102E+08, -5.239946528385133E+06,  2.487467359267241E+01,  5.670049081865220E+00, -4.917468895172024E-01,
2455537.000000000, A.D. 2010-Dec-06 12:00:00.0000,  3.186664172531090E+07, -2.124790211258771E+08, -5.250551958864376E+06,  2.486540379837412E+01,  5.731254124291600E+00, -4.902367653139634E-01,
2455537.250000000, A.D. 2010-Dec-06 18:00:00.0000,  3.240363289279005E+07, -2.123545650271124E+08, -5.261124727877304E+06,  2.485597399176401E+01,  5.792458593984827E+00, -4.887227076383927E-01,
2455537.500000000, A.D. 2010-Dec-07 00:00:00.0000,  3.294041864786627E+07, -2.122287869205579E+08, -5.271664751005501E+06,  2.484638405551056E+01,  5.853662107139301E+00, -4.872047173260181E-01,
2455537.750000000, A.D. 2010-Dec-07 06:00:00.0000,  3.347699553138858E+07, -2.121016868329304E+08, -5.282171943864584E+06,  2.483663394330550E+01,  5.914864218080076E+00, -4.856828324134144E-01,
2455538.000000000, A.D. 2010-Dec-07 12:00:00.0000,  3.401336008153673E+07, -2.119732648006237E+08, -5.292646222092897E+06,  2.482672356723249E+01,  5.976064403952461E+00, -4.841570752387341E-01,
2455538.250000000, A.D. 2010-Dec-07 18:00:00.0000,  3.454950883430950E+07, -2.118435208694591E+08, -5.303087501551419E+06,  2.481665276833971E+01,  6.037262177984174E+00, -4.826274311894334E-01,
2455538.500000000, A.D. 2010-Dec-08 00:00:00.0000,  3.508543832367706E+07, -2.117124550950275E+08, -5.313495698399216E+06,  2.480642139056932E+01,  6.098457132352380E+00, -4.810938813389609E-01,
2455538.750000000, A.D. 2010-Dec-08 06:00:00.0000,  3.562114508124450E+07, -2.115800675431358E+08, -5.323870728946999E+06,  2.479602935577077E+01,  6.159648871601312E+00, -4.795564425551544E-01,
2455539.000000000, A.D. 2010-Dec-08 12:00:00.0000,  3.615662563591918E+07, -2.114463582896972E+08, -5.334212509481251E+06,  2.478547661982713E+01,  6.220836906699521E+00, -4.780151532441903E-01,
2455539.250000000, A.D. 2010-Dec-08 18:00:00.0000,  3.669187651422562E+07, -2.113113274202683E+08, -5.344520956372887E+06,  2.477476306995177E+01,  6.282020709154187E+00, -4.764700208642914E-01,
2455539.500000000, A.D. 2010-Dec-09 00:00:00.0000,  3.722689424079381E+07, -2.111749750300468E+08, -5.354795986291990E+06,  2.476388854646875E+01,  6.343199817112172E+00, -4.749210255174008E-01,
2455539.750000000, A.D. 2010-Dec-09 06:00:00.0000,  3.776167533833319E+07, -2.110373012242702E+08, -5.365037516201764E+06,  2.475285292509687E+01,  6.404373838763597E+00, -4.733681590143306E-01,
2455540.000000000, A.D. 2010-Dec-09 12:00:00.0000,  3.829621632716653E+07, -2.108983061184776E+08, -5.375245463138014E+06,  2.474165615964588E+01,  6.465542348669572E+00, -4.718114518815495E-01,
2455540.250000000, A.D. 2010-Dec-09 18:00:00.0000,  3.883051372505786E+07, -2.107579898382014E+08, -5.385419744097248E+06,  2.473029819118451E+01,  6.526704823099501E+00, -4.702509341762284E-01,
2455540.500000000, A.D. 2010-Dec-10 00:00:00.0000,  3.936456404771341E+07, -2.106163525186775E+08, -5.395560276244566E+06,  2.471877888768159E+01,  6.587860743969511E+00, -4.686866000917611E-01,
2455540.750000000, A.D. 2010-Dec-10 06:00:00.0000,  3.989836380917300E+07, -2.104733943050443E+08, -5.405666977094769E+06,  2.470709810135111E+01,  6.649009675773138E+00, -4.671184303065892E-01,
2455541.000000000, A.D. 2010-Dec-10 12:00:00.0000,  4.043190952160012E+07, -2.103291153527105E+08, -5.415739764416173E+06,  2.469525574716128E+01,  6.710151227980520E+00, -4.655464317791829E-01,
2455541.250000000, A.D. 2010-Dec-10 18:00:00.0000,  4.096519769477851E+07, -2.101835158273678E+08, -5.425778555976450E+06,  2.468325179492099E+01,  6.771284933567113E+00, -4.639706417342779E-01,
